CCSDS_OMM_VERS = 2.0
CREATION_DATE  = 
ORIGINATOR     = 

OBJECT_NAME    = IDEFIX & ARIANE 42P R/B
OBJECT_ID      = 2002-021B
CENTER_NAME    = EARTH
REF_FRAME      = TEME
TIME_SYSTEM    = UTC
MEAN_ELEMENT_THEORY = SGP/SGP4

EPOCH          = 2026-01-22T08:21:20.776032
MEAN_MOTION    = 14.30986731
ECCENTRICITY   = .0011318
INCLINATION    = 98.5829
RA_OF_ASC_NODE = 321.5220
ARG_OF_PERICENTER = 329.3702
MEAN_ANOMALY   = 30.6819

EPHEMERIS_TYPE = 0
CLASSIFICATION_TYPE = U
NORAD_CAT_ID   = 27422
ELEMENT_SET_NO = 999
REV_AT_EPOCH   = 23739
BSTAR          = .25106E-3
MEAN_MOTION_DOT = .617E-5
MEAN_MOTION_DDOT = 0

CCSDS_OMM_VERS = 2.0
CREATION_DATE  = 
ORIGINATOR     = 

OBJECT_NAME    = AQUA
OBJECT_ID      = 2002-022A
CENTER_NAME    = EARTH
REF_FRAME      = TEME
TIME_SYSTEM    = UTC
MEAN_ELEMENT_THEORY = SGP/SGP4

EPOCH          = 2026-01-22T11:52:36.327360
MEAN_MOTION    = 14.61847233
ECCENTRICITY   = .000197
INCLINATION    = 98.4099
RA_OF_ASC_NODE = 349.0485
ARG_OF_PERICENTER = 69.5876
MEAN_ANOMALY   = 43.4746

EPHEMERIS_TYPE = 0
CLASSIFICATION_TYPE = U
NORAD_CAT_ID   = 27424
ELEMENT_SET_NO = 999
REV_AT_EPOCH   = 26198
BSTAR          = .44069E-3
MEAN_MOTION_DOT = .2153E-4
MEAN_MOTION_DDOT = 0

CCSDS_OMM_VERS = 2.0
CREATION_DATE  = 
ORIGINATOR     = 

OBJECT_NAME    = CZ-4B R/B
OBJECT_ID      = 2002-024C
CENTER_NAME    = EARTH
REF_FRAME      = TEME
TIME_SYSTEM    = UTC
MEAN_ELEMENT_THEORY = SGP/SGP4

EPOCH          = 2026-01-22T09:05:18.130848
MEAN_MOTION    = 14.14538107
ECCENTRICITY   = .0050658
INCLINATION    = 98.8935
RA_OF_ASC_NODE = 75.9965
ARG_OF_PERICENTER = 153.6160
MEAN_ANOMALY   = 217.7983

EPHEMERIS_TYPE = 0
CLASSIFICATION_TYPE = U
NORAD_CAT_ID   = 27432
ELEMENT_SET_NO = 999
REV_AT_EPOCH   = 22269
BSTAR          = .95607E-4
MEAN_MOTION_DOT = .141E-5
MEAN_MOTION_DDOT = 0

CCSDS_OMM_VERS = 2.0
CREATION_DATE  = 
ORIGINATOR     = 

OBJECT_NAME    = MIDORI II (ADEOS-II)
OBJECT_ID      = 2002-056A
CENTER_NAME    = EARTH
REF_FRAME      = TEME
TIME_SYSTEM    = UTC
MEAN_ELEMENT_THEORY = SGP/SGP4

EPOCH          = 2026-01-22T11:02:19.486464
MEAN_MOTION    = 14.29243522
ECCENTRICITY   = .0001914
INCLINATION    = 98.7695
RA_OF_ASC_NODE = 340.6428
ARG_OF_PERICENTER = 108.2384
MEAN_ANOMALY   = 251.9006

EPHEMERIS_TYPE = 0
CLASSIFICATION_TYPE = U
NORAD_CAT_ID   = 27597
ELEMENT_SET_NO = 999
REV_AT_EPOCH   = 20369
BSTAR          = .27084E-3
MEAN_MOTION_DOT = .643E-5
MEAN_MOTION_DDOT = 0

CCSDS_OMM_VERS = 2.0
CREATION_DATE  = 
ORIGINATOR     = 

OBJECT_NAME    = H-2A R/B
OBJECT_ID      = 2002-056E
CENTER_NAME    = EARTH
REF_FRAME      = TEME
TIME_SYSTEM    = UTC
MEAN_ELEMENT_THEORY = SGP/SGP4

EPOCH          = 2026-01-22T12:25:19.459776
MEAN_MOTION    = 14.33720244
ECCENTRICITY   = .0069258
INCLINATION    = 98.3123
RA_OF_ASC_NODE = 344.6649
ARG_OF_PERICENTER = 299.8138
MEAN_ANOMALY   = 171.7011

EPHEMERIS_TYPE = 0
CLASSIFICATION_TYPE = U
NORAD_CAT_ID   = 27601
ELEMENT_SET_NO = 999
REV_AT_EPOCH   = 20749
BSTAR          = .24923E-3
MEAN_MOTION_DOT = .668E-5
MEAN_MOTION_DDOT = 0

CCSDS_OMM_VERS = 2.0
CREATION_DATE  = 
ORIGINATOR     = 

OBJECT_NAME    = CZ-4B R/B
OBJECT_ID      = 2003-049C
CENTER_NAME    = EARTH
REF_FRAME      = TEME
TIME_SYSTEM    = UTC
MEAN_ELEMENT_THEORY = SGP/SGP4

EPOCH          = 2026-01-22T10:42:14.476896
MEAN_MOTION    = 14.54959780
ECCENTRICITY   = .0048534
INCLINATION    = 98.6827
RA_OF_ASC_NODE = 15.5567
ARG_OF_PERICENTER = 14.2039
MEAN_ANOMALY   = 346.0509

EPHEMERIS_TYPE = 0
CLASSIFICATION_TYPE = U
NORAD_CAT_ID   = 28059
ELEMENT_SET_NO = 999
REV_AT_EPOCH   = 17987
BSTAR          = .20959E-3
MEAN_MOTION_DOT = .864E-5
MEAN_MOTION_DDOT = 0

CCSDS_OMM_VERS = 2.0
CREATION_DATE  = 
ORIGINATOR     = 

OBJECT_NAME    = CZ-2C R/B
OBJECT_ID      = 2004-012C
CENTER_NAME    = EARTH
REF_FRAME      = TEME
TIME_SYSTEM    = UTC
MEAN_ELEMENT_THEORY = SGP/SGP4

EPOCH          = 2026-01-22T09:56:51.734688
MEAN_MOTION    = 15.59221250
ECCENTRICITY   = .0017141
INCLINATION    = 97.7338
RA_OF_ASC_NODE = 83.4905
ARG_OF_PERICENTER = 119.8989
MEAN_ANOMALY   = 240.3972

EPHEMERIS_TYPE = 0
CLASSIFICATION_TYPE = U
NORAD_CAT_ID   = 28222
ELEMENT_SET_NO = 999
REV_AT_EPOCH   = 19705
BSTAR          = .63241E-3
MEAN_MOTION_DOT = .50047E-3
MEAN_MOTION_DDOT = 0

CCSDS_OMM_VERS = 2.0
CREATION_DATE  = 
ORIGINATOR     = 

OBJECT_NAME    = SL-16 R/B
OBJECT_ID      = 2004-021B
CENTER_NAME    = EARTH
REF_FRAME      = TEME
TIME_SYSTEM    = UTC
MEAN_ELEMENT_THEORY = SGP/SGP4

EPOCH          = 2026-01-22T06:45:29.994624
MEAN_MOTION    = 14.14592361
ECCENTRICITY   = .00027
INCLINATION    = 71.0028
RA_OF_ASC_NODE = 329.8845
ARG_OF_PERICENTER = 127.1868
MEAN_ANOMALY   = 232.9501

EPHEMERIS_TYPE = 0
CLASSIFICATION_TYPE = U
NORAD_CAT_ID   = 28353
ELEMENT_SET_NO = 999
REV_AT_EPOCH   = 11627
BSTAR          = -.36529E-4
MEAN_MOTION_DOT = -.118E-5
MEAN_MOTION_DDOT = 0

CCSDS_OMM_VERS = 2.0
CREATION_DATE  = 
ORIGINATOR     = 

OBJECT_NAME    = CZ-4B R/B
OBJECT_ID      = 2004-035C
CENTER_NAME    = EARTH
REF_FRAME      = TEME
TIME_SYSTEM    = UTC
MEAN_ELEMENT_THEORY = SGP/SGP4

EPOCH          = 2026-01-22T08:48:09.598464
MEAN_MOTION    = 15.28157160
ECCENTRICITY   = .0034008
INCLINATION    = 97.3562
RA_OF_ASC_NODE = 57.1798
ARG_OF_PERICENTER = 131.1427
MEAN_ANOMALY   = 229.2757

EPHEMERIS_TYPE = 0
CLASSIFICATION_TYPE = U
NORAD_CAT_ID   = 28415
ELEMENT_SET_NO = 999
REV_AT_EPOCH   = 17283
BSTAR          = .37015E-3
MEAN_MOTION_DOT = .10263E-3
MEAN_MOTION_DDOT = 0

CCSDS_OMM_VERS = 2.0
CREATION_DATE  = 
ORIGINATOR     = 

OBJECT_NAME    = CZ-2C R/B
OBJECT_ID      = 2004-046B
CENTER_NAME    = EARTH
REF_FRAME      = TEME
TIME_SYSTEM    = UTC
MEAN_ELEMENT_THEORY = SGP/SGP4

EPOCH          = 2026-01-22T11:42:05.761152
MEAN_MOTION    = 14.26970752
ECCENTRICITY   = .013836
INCLINATION    = 98.2001
RA_OF_ASC_NODE = 300.3384
ARG_OF_PERICENTER = 291.7628
MEAN_ANOMALY   = 66.8877

EPHEMERIS_TYPE = 0
CLASSIFICATION_TYPE = U
NORAD_CAT_ID   = 28480
ELEMENT_SET_NO = 999
REV_AT_EPOCH   = 10191
BSTAR          = .15283E-3
MEAN_MOTION_DOT = .369E-5
MEAN_MOTION_DDOT = 0

CCSDS_OMM_VERS = 2.0
CREATION_DATE  = 
ORIGINATOR     = 

OBJECT_NAME    = ARIANE 5 R/B
OBJECT_ID      = 2004-049H
CENTER_NAME    = EARTH
REF_FRAME      = TEME
TIME_SYSTEM    = UTC
MEAN_ELEMENT_THEORY = SGP/SGP4

EPOCH          = 2026-01-22T09:59:19.852800
MEAN_MOTION    = 14.85147437
ECCENTRICITY   = .0085112
INCLINATION    = 98.2552
RA_OF_ASC_NODE = 189.1660
ARG_OF_PERICENTER = 140.4539
MEAN_ANOMALY   = 220.2927

EPHEMERIS_TYPE = 0
CLASSIFICATION_TYPE = U
NORAD_CAT_ID   = 28499
ELEMENT_SET_NO = 999
REV_AT_EPOCH   = 13892
BSTAR          = .26487E-3
MEAN_MOTION_DOT = .2356E-4
MEAN_MOTION_DDOT = 0

CCSDS_OMM_VERS = 2.0
CREATION_DATE  = 
ORIGINATOR     = 

OBJECT_NAME    = CZ-2D R/B
OBJECT_ID      = 2005-024B
CENTER_NAME    = EARTH
REF_FRAME      = TEME
TIME_SYSTEM    = UTC
MEAN_ELEMENT_THEORY = SGP/SGP4

EPOCH          = 2026-01-22T11:13:44.463936
MEAN_MOTION    = 15.56074459
ECCENTRICITY   = .0005302
INCLINATION    = 97.3622
RA_OF_ASC_NODE = 36.0630
ARG_OF_PERICENTER = 163.8167
MEAN_ANOMALY   = 196.3258

EPHEMERIS_TYPE = 0
CLASSIFICATION_TYPE = U
NORAD_CAT_ID   = 28738
ELEMENT_SET_NO = 999
REV_AT_EPOCH   = 13258
BSTAR          = .56037E-3
MEAN_MOTION_DOT = .39127E-3
MEAN_MOTION_DDOT = 0

