IDEFIX & ARIANE 42P R/B 
1 27422U 02021B   26022.34815713  .00000617  00000+0  25106-3 0  9996
2 27422  98.5829 321.5220 0011318 329.3702  30.6819 14.30986731237398
AQUA                    
1 27424U 02022A   26022.49486490  .00002153  00000+0  44069-3 0  9997
2 27424  98.4099 349.0485 0001970  69.5876  43.4746 14.61847233261984
CZ-4B R/B               
1 27432U 02024C   26022.37868207  .00000141  00000+0  95607-4 0  9995
2 27432  98.8935  75.9965 0050658 153.6160 217.7983 14.14538107222691
MIDORI II (ADEOS-II)    
1 27597U 02056A   26022.45994776  .00000643  00000+0  27084-3 0  9992
2 27597  98.7695 340.6428 0001914 108.2384 251.9006 14.29243522203691
H-2A R/B                
1 27601U 02056E   26022.51758634  .00000668  00000+0  24923-3 0  9992
2 27601  98.3123 344.6649 0069258 299.8138 171.7011 14.33720244207490
CZ-4B R/B               
1 28059U 03049C   26022.44600089  .00000864  00000+0  20959-3 0  9998
2 28059  98.6827  15.5567 0048534  14.2039 346.0509 14.54959780179879
CZ-2C R/B               
1 28222U 04012C   26022.41448767  .00050047  00000+0  63241-3 0  9990
2 28222  97.7338  83.4905 0017141 119.8989 240.3972 15.59221250197054
SL-16 R/B               
1 28353U 04021B   26022.28159716 -.00000118  00000+0 -36529-4 0  9999
2 28353  71.0028 329.8845 0002700 127.1868 232.9501 14.14592361116277
CZ-4B R/B               
1 28415U 04035C   26022.36677776  .00010263  00000+0  37015-3 0  9993
2 28415  97.3562  57.1798 0034008 131.1427 229.2757 15.28157160172836
CZ-2C R/B               
1 28480U 04046B   26022.48756668  .00000369  00000+0  15283-3 0  9997
2 28480  98.2001 300.3384 0138360 291.7628  66.8877 14.26970752101918
ARIANE 5 R/B            
1 28499U 04049H   26022.41620200  .00002356  00000+0  26487-3 0  9991
2 28499  98.2552 189.1660 0085112 140.4539 220.2927 14.85147437138920
CZ-2D R/B               
1 28738U 05024B   26022.46787574  .00039127  00000+0  56037-3 0  9994
2 28738  97.3622  36.0630 0005302 163.8167 196.3258 15.56074459132588
